[{"OBJECT_NAME":"STARLINK-31236","OBJECT_ID":"2024-017R","EPOCH":"2026-03-09T13:18:01.874304","MEAN_MOTION":15.30186408,"ECCENTRICITY":0.0001304,"INCLINATION":53.1617,"RA_OF_ASC_NODE":205.0751,"ARG_OF_PERICENTER":55.8381,"MEAN_ANOMALY":304.2743,"EPHEMERIS_TYPE":0,"CLASSIFICATION_TYPE":"U","NORAD_CAT_ID":58841,"ELEMENT_SET_NO":999,"REV_AT_EPOCH":12003,"BSTAR":-1.3742e-5,"MEAN_MOTION_DOT":-7.66e-6,"MEAN_MOTION_DDOT":0},{"OBJECT_NAME":"STARLINK-31704","OBJECT_ID":"2024-076Y","EPOCH":"2026-03-09T12:00:01.999296","MEAN_MOTION":15.30825628,"ECCENTRICITY":0.0008002,"INCLINATION":42.9983,"RA_OF_ASC_NODE":325.6544,"ARG_OF_PERICENTER":238.8434,"MEAN_ANOMALY":63.1356,"EPHEMERIS_TYPE":0,"CLASSIFICATION_TYPE":"U","NORAD_CAT_ID":59586,"ELEMENT_SET_NO":999,"REV_AT_EPOCH":595,"BSTAR":0.0024083,"MEAN_MOTION_DOT":0.0007376,"MEAN_MOTION_DDOT":0}]
